#aV2008  6 27  0  0   .00000000      96 DD+AD WGS84 FIT  NGA
## 1485 432000.00000000   900.00000000 54644  .0000000000000
+   31     2  3  4  5  6  7  8  9 10 11 12 13 14 15 16 17 18
+         19 20 21 22 23 24 25 26 27 28 29 30 31 32  0  0  0
+          0  0  0  0  0  0  0  0  0  0  0  0  0  0  0  0  0
+          0  0  0  0  0  0  0  0  0  0  0  0  0  0  0  0  0
+          0  0  0  0  0  0  0  0  0  0  0  0  0  0  0  0  0
++         0  0  0  0  0  0  0  0  0  0  0  0  0  0  0  0  0
++         0  0  0  0  0  0  0  0  0  0  0  0  0  0  0  0  0
++         0  0  0  0  0  0  0  0  0  0  0  0  0  0  0  0  0
++         0  0  0  0  0  0  0  0  0  0  0  0  0  0  0  0  0
++         0  0  0  0  0  0  0  0  0  0  0  0  0  0  0  0  0
%c cc cc ccc ccc cccc cccc cccc cccc ccccc ccccc ccccc ccccc
%c cc cc ccc ccc cccc cccc cccc cccc ccccc ccccc ccccc ccccc
%f  0.0000000  0.000000000  0.00000000000  0.000000000000000
%f  0.0000000  0.000000000  0.00000000000  0.000000000000000
%i    0    0    0    0      0      0      0      0         0
%i    0    0    0    0      0      0      0      0         0
/*      NGA, ST. LOUIS,MO.                                  
/*   EPHEMERIS COMPUTED FROM  3 DAYS OF DATA                
/* CCCCCCCCCCCCCCCCCCCCCCCCCCCCCCCCCCCCCCCCCCCCCCCCCCCCCCCCC
/* CCCCCCCCCCCCCCCCCCCCCCCCCCCCCCCCCCCCCCCCCCCCCCCCCCCCCCCCC
*  2008  6 27  1 45   .00000000                                                 
P  2 -15810.055228  -1910.903137 -21371.833154    205.075254                    
V  2   8659.286601 -25468.814523  -4517.000170      -.014466                    
P  3  21622.908255   6490.303339  14003.357365    247.569506                    
V  3  11008.549443  14728.734324 -23036.427664       .052325                    
P  4 -10898.203757 -13000.942978 -20454.265379   -100.796706                    
V  4  10492.195118 -23715.697516   9887.706111      -.093993                    
P  5 -15971.810362  15311.967615 -14862.222111   -379.560226                    
V  5 -18524.965276   2282.457111  22823.249522       .125959                    
P  6  21309.145004  11193.109180  11400.728984    153.873821                    
V  6   7182.554553  12690.380415 -26357.668524       .052181                    
P  7   6815.812444 -25357.085909   3691.648119    -13.717841                    
V  7   4276.174702  -3446.450364 -31389.265994       .065283                    
P  8  -1464.255108 -21542.432644  15050.833554   -159.264825                    
V  8   9502.940098 -17024.779113 -23773.630002      -.016903                    
P  9 -14040.876524  19580.796235  10363.170406      2.593716                    
V  9   2178.973016 -14190.701582  28205.070078       .016821                    
P 10 -26303.067070    209.840662  -4920.896551     -2.496110                    
V 10   5632.483540  -3183.775705 -30792.842573      -.002442                    
P 11  11514.039425 -21680.445210   9565.554835     24.172949                    
V 11   2539.672736  13234.284860  26844.272917      -.004388                    
P 12 -20643.344035  11646.423095 -11796.066919   -358.008656                    
V 12 -15330.112628     87.251495  26811.726878       .005305                    
P 13  -2302.945327 -20892.568584 -16366.402733    261.460076                    
V 13  13119.677336  15766.395218 -22120.812833       .015476                    
P 14  15310.104414  21714.137543   1724.326532   -250.881498                    
V 14  -2695.655519   -516.815038  32200.366062       .043063                    
P 15 -16751.635853   2479.707665  20484.226168   -133.182796                    
V 15 -15967.331304 -20508.933483 -10575.514843      -.061954                    
P 16  24602.201108   3186.448695  -9697.768687    119.540518                    
V 16 -11890.482517   3996.919050 -28442.601707      -.016295                    
P 17 -15893.389939 -21355.353975   1318.736719     38.588183                    
V 17   3136.712808   -440.474135  31554.457182      -.000808                    
P 18  -2036.770401  15778.762471  21412.844860   -163.005435                    
V 18 -26716.757881   2780.201808  -4994.660657       .042024                    
P 19  16409.182891  -2304.523129  20882.451077     32.660923                    
V 19  14625.462802  21858.412708  -8928.381537       .005958                    
P 20  19125.329129 -13071.103815 -13072.553589    111.230803                    
V 20  16656.167879   -427.031628  25054.205837      -.008701                    
P 21  -2641.673225  24523.391949   9183.353814     59.957588                    
V 21  -7797.067773   9386.938532 -28516.558134      -.012460                    
P 22  12949.737938  12676.456747  19591.918245    211.500255                    
V 22 -24236.701430   4305.917389  13280.494237      -.001528                    
P 23   8246.263477 -13206.456621 -21553.844243    361.432882                    
V 23  17636.317757  20730.938660  -6220.907649       .019276                    
P 24 -13008.866314  22980.097659  -3841.388485    104.976602                    
V 24   -559.222817  -5753.260989 -30898.737888       .028810                    
P 25   9136.562350 -24766.630705  -3351.342654   -177.474621                    
V 25   1218.862497   5172.296628 -31360.746681      -.056177                    
P 26 -18016.049900  -3553.700414  18902.060423    281.647275                    
V 26 -14208.828831 -20328.523164 -16409.786143       .071319                    
P 27   3174.149295 -25613.516799   6629.030911    198.520041                    
V 27   4549.589433  -6509.510230 -30561.091815       .027901                    
P 28 -11406.920646 -12922.219026  20681.547908    -20.481987                    
V 28  24964.741166  -4144.102367  11067.050932      -.002467                    
P 29   -580.533484  19537.298669 -17877.264568    -42.270567                    
V 29 -15465.818009 -17014.626298 -17941.693360       .004487                    
P 30  -8119.777125  16142.172071 -19779.260128     83.095708                    
V 30 -24204.978283   3655.175611  13248.854451       .018202                    
P 31  11133.848985  11466.692474 -20993.307551    -24.785199                    
V 31 -10181.393574  25149.996823   8365.646882      -.012834                    
P 32  25227.083663  -5642.605137  -5291.458371    301.836859                    
V 32   7474.119522   2103.125212  31090.913152       .036916                    
EOF
